{"generatedAt":"2026-04-13T08:13:18.532298Z","satellites":[{"name":"STARLINK-31020","tle1":"1 58509U 23191B   26102.83898688  .00001393  00000+0  60164-4 0  9998","tle2":"2 58509  43.0022 277.4174 0001602 268.4278  91.6391 15.27569219130615"},{"name":"STARLINK-30989","tle1":"1 58510U 23191C   26102.20281066  .00000258  00000+0  18919-4 0  9997","tle2":"2 58510  43.0036 274.4349 0001356 258.7157 101.3542 15.27575146130621"},{"name":"STARLINK-30968","tle1":"1 58511U 23191D   26102.79514559  .00000981  00000+0  45188-4 0  9999","tle2":"2 58511  43.0032 271.1362 0001421 245.7863 114.2841 15.27577745130688"},{"name":"STARLINK-30982","tle1":"1 58512U 23191E   26102.79899699  .00000394  00000+0  23846-4 0  9996","tle2":"2 58512  43.0031 271.1643 0001318 261.7736  98.2967 15.27579675130686"},{"name":"STARLINK-30998","tle1":"1 58513U 23191F   26102.73616344  .00058488  00000+0  21359-2 0  9997","tle2":"2 58513  43.0031 271.5594 0000836 258.7398 101.3360 15.27306380130707"},{"name":"STARLINK-30983","tle1":"1 58514U 23191G   26102.90406709  .00000666  00000+0  33715-4 0  9995","tle2":"2 58514  43.0025 270.2384 0000978 267.0318  93.0422 15.27579602130352"},{"name":"STARLINK-31017","tle1":"1 58515U 23191H   26102.52417534  .00003350  00000+0  13129-3 0  9991","tle2":"2 58515  43.0024  40.0832 0000713 272.3497  87.7273 15.27556447133356"},{"name":"STARLINK-31028","tle1":"1 58516U 23191J   26102.87580352  .00001867  00000+0  77381-4 0  9991","tle2":"2 58516  43.0021 270.0171 0001198 267.5658  92.5057 15.27574659130703"},{"name":"STARLINK-31011","tle1":"1 58517U 23191K   26102.87196281 -.00000241  00000+0  74930-6 0  9991","tle2":"2 58517  43.0027 269.9967 0001264 266.7153  93.3554 15.27563728130701"},{"name":"STARLINK-31021","tle1":"1 58518U 23191L   26102.91816486  .00004138  00000+0  15969-3 0  9995","tle2":"2 58518  43.0033 270.3230 0001039 270.9874  89.0858 15.27607987130700"},{"name":"STARLINK-31010","tle1":"1 58519U 23191M   26102.84895334  .00001253  00000+0  55036-4 0  9992","tle2":"2 58519  43.0037 270.6282 0001180 274.4713  85.6003 15.27576904130699"},{"name":"STARLINK-31003","tle1":"1 58520U 23191N   26102.80527408  .00002180  00000+0  88707-4 0  9995","tle2":"2 58520  43.0005 270.3540 0001551 265.7325  94.3349 15.27580241130693"},{"name":"STARLINK-31015","tle1":"1 58521U 23191P   26102.74372889  .00014592  00000+0  53821-3 0  9998","tle2":"2 58521  43.0012 270.7537 0001911 259.2312 100.8325 15.27611132130653"},{"name":"STARLINK-30932","tle1":"1 58523U 23191R   26102.75144912 -.00000083  00000+0  65267-5 0  9995","tle2":"2 58523  43.0002 270.8077 0001679 299.8889  60.1795 15.27579702130637"},{"name":"STARLINK-30992","tle1":"1 58524U 23191S   26102.75530197  .00000976  00000+0  44989-4 0  9997","tle2":"2 58524  43.0006 270.8399 0001259 273.3474  86.7234 15.27584314130682"},{"name":"STARLINK-30948","tle1":"1 58525U 23191T   26102.82326091  .00000637  00000+0  32669-4 0  9998","tle2":"2 58525  43.0017 270.4888 0001357 270.8563  89.2133 15.27580563130693"},{"name":"STARLINK-31013","tle1":"1 58526U 23191U   26102.91803080  .00015827  00000+0  10360-2 0  9996","tle2":"2 58526  42.9999 278.0012 0005767 286.2913  73.7297 15.07522413130612"},{"name":"STARLINK-31001","tle1":"1 58527U 23191V   26102.90790560  .00001700  00000+0  71263-4 0  9990","tle2":"2 58527  43.0007 270.1744 0000890 281.6482  78.4269 15.27580260130709"},{"name":"STARLINK-31004","tle1":"1 58528U 23191W   26102.76173763 -.00001096  00000+0 -30338-4 0  9993","tle2":"2 58528  43.0022 270.8852 0001138 272.1022  87.9699 15.27565221130684"},{"name":"STARLINK-30988","tle1":"1 58529U 23191X   26102.76558435  .00001103  00000+0  49583-4 0  9996","tle2":"2 58529  43.0011 270.9131 0001223 272.3762  87.6949 15.27579358130683"},{"name":"STARLINK-31009","tle1":"1 58530U 23191Y   26102.90020866  .00000896  00000+0  42065-4 0  9992","tle2":"2 58530  43.0016 270.2032 0001110 274.8216  85.2509 15.27584658130729"},{"name":"STARLINK-31012","tle1":"1 58531U 23192A   26102.69700221  .00002511  00000+0  96834-4 0  9999","tle2":"2 58531  53.1585 264.6648 0001569 320.5590  39.5296 15.30212960131190"},{"name":"STARLINK-31035","tle1":"1 58532U 23192B   26102.67534060  .00000386  00000+0  25149-4 0  9993","tle2":"2 58532  53.1600 251.7244 0001126  90.5772 269.5358 15.30199779131379"},{"name":"STARLINK-31036","tle1":"1 58533U 23192C   26102.72866839  .00001254  00000+0  54457-4 0  9991","tle2":"2 58533  53.1592 264.8930 0001614  89.6624 270.4562 15.30196235131196"},{"name":"STARLINK-30936","tle1":"1 58534U 23192D   26102.83300565  .00003581  00000+0  13304-3 0  9993","tle2":"2 58534  53.1611 254.1783 0001109  86.4992 273.6136 15.30184355131359"},{"name":"STARLINK-31032","tle1":"1 58535U 23192E   26102.70017162  .00000877  00000+0  41726-4 0  9993","tle2":"2 58535  53.1606 264.6857 0000841 102.7238 257.3857 15.30190497131194"},{"name":"STARLINK-31037","tle1":"1 58536U 23192F   26102.70439341 -.00000077  00000+0  95441-5 0  9998","tle2":"2 58536  53.1602 264.7322 0001210  96.3427 263.7712 15.30188335131197"},{"name":"STARLINK-31041","tle1":"1 58537U 23192G   26102.70333622 -.00000101  00000+0  87064-5 0  9994","tle2":"2 58537  53.1608 264.7057 0001112  93.7252 266.3876 15.30188887131199"},{"name":"STARLINK-31014","tle1":"1 58538U 23192H   26102.90984835 -.00000084  00000+0  93054-5 0  9991","tle2":"2 58538  53.1592 263.8600 0001348  93.4789 266.6366 15.30181068131224"},{"name":"STARLINK-31055","tle1":"1 58539U 23192J   26102.84767009  .00003089  00000+0  11641-3 0  9994","tle2":"2 58539  53.1599 264.1820 0001072  91.3805 268.7319 15.30190083131217"},{"name":"STARLINK-31019","tle1":"1 58540U 23192K   26102.70755541  .00000660  00000+0  34399-4 0  9997","tle2":"2 58540  53.1616 264.7309 0001042  90.3492 269.7628 15.30191553131199"},{"name":"STARLINK-31045","tle1":"1 58541U 23192L   26102.91421557 -.00000022  00000+0  11374-4 0  9999","tle2":"2 58541  53.1619 340.6140 0001211  82.7496 277.3642 15.30190480130139"},{"name":"STARLINK-31030","tle1":"1 58542U 23192M   26102.85083647  .00005827  00000+0  20855-3 0  9997","tle2":"2 58542  53.1607 264.2010 0000555  83.6440 276.4624 15.30222831131219"},{"name":"STARLINK-31049","tle1":"1 58543U 23192N   26102.85402017  .00001927  00000+0  77178-4 0  9992","tle2":"2 58543  53.1611 264.2204 0001089  63.4642 296.6471 15.30198661131210"},{"name":"STARLINK-31048","tle1":"1 58544U 23192P   26102.74964728 -.00000196  00000+0  54921-5 0  9993","tle2":"2 58544  53.1607 264.2409 0000900  89.9400 270.1704 15.30196052131206"},{"name":"STARLINK-31057","tle1":"1 58545U 23192Q   26102.72655406  .00003599  00000+0  13364-3 0  9995","tle2":"2 58545  53.1621 264.8479 0001216  84.0756 276.0384 15.30181282131193"},{"name":"STARLINK-31050","tle1":"1 58546U 23192R   26102.72971964 -.00000533  00000+0 -58730-5 0  9991","tle2":"2 58546  53.1596 264.8651 0000847  72.3665 287.7428 15.30192904131196"},{"name":"STARLINK-31063","tle1":"1 58547U 23192S   26102.60855702  .00000196  00000+0  18728-4 0  9995","tle2":"2 58547  53.1606 254.8489 0001108  93.6877 266.4251 15.30190254131328"},{"name":"STARLINK-31016","tle1":"1 58548U 23192T   26102.81813559 -.00000116  00000+0  82081-5 0  9990","tle2":"2 58548  53.1607 263.9561 0000762 144.8260 215.2792 15.30198081131218"},{"name":"STARLINK-31053","tle1":"1 58549U 23192U   26102.73288352 -.00001348  00000+0 -33391-4 0  9997","tle2":"2 58549  53.1629 264.8841 0001112  87.3091 272.8038 15.30198700131194"},{"name":"STARLINK-31056","tle1":"1 58550U 23192V   26102.95193176 -.00005116  00000+0 -16067-3 0  9999","tle2":"2 58550  53.1607 263.4133 0000690  89.6585 270.4495 15.30210316131238"},{"name":"STARLINK-30999","tle1":"1 58551U 23192W   26102.91200607  .00000762  00000+0  37821-4 0  9996","tle2":"2 58551  53.1621 253.8111 0000528  94.2194 265.8867 15.30202363131360"},{"name":"STARLINK-31046","tle1":"1 58552U 23192X   26102.74027025  .00000685  00000+0  35273-4 0  9992","tle2":"2 58552  53.1603 264.9308 0001315  85.9836 274.1315 15.30196574131195"},{"name":"STARLINK-31044","tle1":"1 58589U 23200A   26101.93595293 -.00002720  00000+0 -91721-4 0  9993","tle2":"2 58589  43.0066 341.2330 0002739 270.0666  89.9872 15.26740623128695"},{"name":"STARLINK-31062","tle1":"1 58590U 23200B   26102.95233459  .00002903  00000+0  11784-3 0  9992","tle2":"2 58590  43.0034 338.5199 0001144 285.4254  74.6471 15.26750386128813"},{"name":"STARLINK-31096","tle1":"1 58592U 23200D   26102.92754535  .00042318  00000+0  14980-2 0  9998","tle2":"2 58592  42.9994 336.6484 0008661 253.9135 106.0763 15.28424418128835"},{"name":"STARLINK-31094","tle1":"1 58593U 23200E   26102.63562904 -.00000698  00000+0 -15833-4 0  9991","tle2":"2 58593  43.0031 337.0497 0001179 257.8894 102.1826 15.27570739128802"},{"name":"STARLINK-31075","tle1":"1 58594U 23200F   26102.67991151  .00064536  00000+0  22963-2 0  9995","tle2":"2 58594  43.0019 336.5104 0008804 274.6409  85.3437 15.28085820128813"},{"name":"STARLINK-30857","tle1":"1 58595U 23200G   26102.70871539  .00001637  00000+0  68990-4 0  9992","tle2":"2 58595  43.0034 336.7319 0001774 261.6074  98.4577 15.27580696128814"},{"name":"STARLINK-31059","tle1":"1 58596U 23200H   26102.90380083 -.00002242  00000+0 -71982-4 0  9994","tle2":"2 58596  43.0009 178.9058 0001652 279.3647  80.7018 15.27574033130680"},{"name":"STARLINK-31087","tle1":"1 58597U 23200J   26102.94188721  .00000699  00000+0  35736-4 0  9993","tle2":"2 58597  43.0017 335.0349 0001088 278.2921  81.7807 15.26738050128746"},{"name":"STARLINK-31079","tle1":"1 58598U 23200K   26102.91668981  .00135326  00000+0  23818-2 0  9994","tle2":"2 58598  42.9833 302.4579 0032362 266.7343  25.8344 15.48680880  6250"},{"name":"STARLINK-31052","tle1":"1 58600U 23200M   26102.94972945  .00022967  00000+0  84273-3 0  9998","tle2":"2 58600  43.0084 335.0978 0002430 283.4598  76.5983 15.27531999128856"},{"name":"STARLINK-31074","tle1":"1 58601U 23200N   26102.69200420 -.00003482  00000+0 -11713-3 0  9995","tle2":"2 58601  43.0036 336.6052 0001554 270.1199  89.9474 15.27561459128813"}]}